{
"type": "FeatureCollection",
"name": "perimetro_p3",
"crs": { "type": "name", "properties": { "name": "urn:ogc:def:crs:OGC:1.3:CRS84" } },
"features": [
{ "type": "Feature", "properties": { "cod_sipra": "PR0110000", "nome_pa": "FAZENDA CHAPADÃO", "municipio": "LARANJAL", "a_utm": null, "sncr": null, "n_parcelas": null, "PA": "Fazenda Chapadão" }, "geometry": { "type": "MultiPolygon", "coordinates": [ [ [ [ -52.48158722, -24.8304525 ], [ -52.48171889, -24.83055056 ], [ -52.48194861, -24.83050306 ], [ -52.48208528, -24.83069806 ], [ -52.48221139, -24.83075528 ], [ -52.482345, -24.830825829999988 ], [ -52.48244556, -24.83093 ], [ -52.48262167, -24.83106 ], [ -52.4828925, -24.83096972 ], [ -52.48313722, -24.8309875 ], [ -52.48338444, -24.83090361 ], [ -52.48363833, -24.83080694 ], [ -52.48385556, -24.83103139 ], [ -52.48436361, -24.83097528 ], [ -52.48457028, -24.83086028 ], [ -52.48491, -24.83078722 ], [ -52.48512917, -24.83070194 ], [ -52.48531667, -24.83067167 ], [ -52.48540194, -24.83062361 ], [ -52.48564389, -24.83070944 ], [ -52.48564917, -24.83062139 ], [ -52.4858075, -24.83058139 ], [ -52.48604056, -24.83051972 ], [ -52.48641833, -24.83030361 ], [ -52.4866575, -24.83021417 ], [ -52.48671417, -24.83010944 ], [ -52.48708278, -24.82984472 ], [ -52.48739778, -24.82965611 ], [ -52.48767611000001, -24.82936111 ], [ -52.48800278, -24.82928972 ], [ -52.488475415765464, -24.828967444923222 ], [ -52.48849611, -24.82895333 ], [ -52.48866889, -24.82890611 ], [ -52.48891806, -24.82864417 ], [ -52.48912639, -24.82854528 ], [ -52.48932694, -24.82830361 ], [ -52.48946167, -24.82807528 ], [ -52.48952194, -24.82773222 ], [ -52.48962972, -24.82760833 ], [ -52.4897975, -24.82738806 ], [ -52.48997722, -24.82720083 ], [ -52.49012972, -24.82715444 ], [ -52.49029444, -24.82713389 ], [ -52.49053472, -24.82698 ], [ -52.49078361, -24.82699972 ], [ -52.49102778000001, -24.8269375 ], [ -52.49119611, -24.82684667 ], [ -52.49152056, -24.82687333 ], [ -52.49168778, -24.82688444 ], [ -52.49198444, -24.82694861 ], [ -52.49224972, -24.82700111 ], [ -52.492495, -24.82704361 ], [ -52.49269944, -24.82712806 ], [ -52.49289861, -24.82709917 ], [ -52.49317583, -24.82698139 ], [ -52.49324806, -24.82702306 ], [ -52.49347111, -24.82702833 ], [ -52.49368389, -24.82698667 ], [ -52.49371889, -24.82691389 ], [ -52.49362361, -24.82682806 ], [ -52.49365, -24.82680639 ], [ -52.49371583, -24.82683667 ], [ -52.49387694, -24.82681778 ], [ -52.49401056, -24.82676389 ], [ -52.4941525, -24.82692194 ], [ -52.49404361, -24.82703722 ], [ -52.49401306, -24.827285 ], [ -52.49411778, -24.82733083 ], [ -52.49425417, -24.82730778 ], [ -52.49425194, -24.82728917 ], [ -52.494365, -24.82716278 ], [ -52.49445444, -24.82698111 ], [ -52.49450556, -24.82694889 ], [ -52.49492444, -24.82673861 ], [ -52.495055, -24.82668944 ], [ -52.49537556, -24.82652222 ], [ -52.49560528, -24.82636833 ], [ -52.49562722000001, -24.82619333 ], [ -52.49564694, -24.82600306 ], [ -52.49550389, -24.82579222 ], [ -52.49536222, -24.82564111 ], [ -52.49512583, -24.82545361 ], [ -52.49492833, -24.82517806 ], [ -52.49471389, -24.82497306 ], [ -52.49460222, -24.82477389 ], [ -52.49453306, -24.82459222 ], [ -52.49435694, -24.82441694 ], [ -52.49426944, -24.82431667 ], [ -52.49427333, -24.82407722 ], [ -52.494285983820554, -24.823970464508673 ], [ -52.49429611, -24.823885 ], [ -52.4942275, -24.82362306 ], [ -52.49409972, -24.82325778 ], [ -52.49404611, -24.82308417 ], [ -52.49392389, -24.82286361 ], [ -52.49386139, -24.82265722 ], [ -52.49383028, -24.82250278 ], [ -52.49380556, -24.82240778 ], [ -52.49379472, -24.82217167 ], [ -52.49387833, -24.82208083 ], [ -52.49392417, -24.82194833 ], [ -52.49396944, -24.82189028 ], [ -52.49399083, -24.82164861 ], [ -52.49393389, -24.82137111 ], [ -52.4939275, -24.82113 ], [ -52.49396278, -24.82081361 ], [ -52.49397972, -24.82056917 ], [ -52.49401917, -24.82040528 ], [ -52.49396944, -24.82005861 ], [ -52.49387556, -24.81994556 ], [ -52.493328332161944, -24.819844100117304 ], [ -52.49314778, -24.81981083 ], [ -52.49265833, -24.8197075 ], [ -52.492505, -24.81973111 ], [ -52.49214306, -24.81973889 ], [ -52.4913425, -24.81957 ], [ -52.49083944, -24.81944222 ], [ -52.490152170840538, -24.819244374647269 ], [ -52.49003083, -24.81920944 ], [ -52.48993528, -24.81908722 ], [ -52.48996667, -24.81890722 ], [ -52.49016861, -24.81872472 ], [ -52.49050806, -24.81841639 ], [ -52.49094333, -24.81812944 ], [ -52.49131611, -24.81786139 ], [ -52.491515023528592, -24.817590954800345 ], [ -52.49154556, -24.81754944 ], [ -52.49177278, -24.81731472 ], [ -52.49189806, -24.81714417 ], [ -52.492095, -24.81690417 ], [ -52.49238278, -24.81660528 ], [ -52.4926475, -24.81643528 ], [ -52.49299278, -24.81628222 ], [ -52.49303, -24.81628111 ], [ -52.493505, -24.81628833 ], [ -52.49386028, -24.81625806 ], [ -52.49420111, -24.81615444 ], [ -52.494340084472014, -24.81610080081327 ], [ -52.49447889, -24.81604722 ], [ -52.49455694, -24.81609667 ], [ -52.49488667, -24.81603194 ], [ -52.49538306, -24.81605194 ], [ -52.49603056, -24.8159575 ], [ -52.49635778, -24.81594111 ], [ -52.49684639, -24.81595167 ], [ -52.49705056, -24.81589972 ], [ -52.49745889, -24.81572222 ], [ -52.49746806, -24.81570028 ], [ -52.49774333, -24.815405 ], [ -52.49783583, -24.81533611 ], [ -52.49797194, -24.815095 ], [ -52.49808889, -24.81472861 ], [ -52.49808722, -24.81471083 ], [ -52.49809111, -24.81446444 ], [ -52.49807278, -24.81445194 ], [ -52.498210643751221, -24.8144458352185 ], [ -52.49816, -24.81434972 ], [ -52.49819111, -24.81428944 ], [ -52.49818528, -24.81419861 ], [ -52.49821111, -24.814075 ], [ -52.49824056, -24.81399556 ], [ -52.49829194, -24.81384806 ], [ -52.49830028, -24.81369556 ], [ -52.49825083, -24.81359667 ], [ -52.49838611, -24.81337528 ], [ -52.4983875, -24.81326444 ], [ -52.49847667, -24.813128890000012 ], [ -52.498525, -24.81297778 ], [ -52.49860972, -24.81290722 ], [ -52.49870167, -24.81274278 ], [ -52.49871472, -24.81263528 ], [ -52.49874778, -24.81248833 ], [ -52.49878389, -24.81232861 ], [ -52.49883722, -24.81220028 ], [ -52.49887056, -24.81207389 ], [ -52.49889722, -24.81197333 ], [ -52.49879056, -24.81181583 ], [ -52.49872472, -24.81171556 ], [ -52.49869, -24.81165722 ], [ -52.49861111, -24.81158917 ], [ -52.49850833, -24.811455 ], [ -52.49831806, -24.81137417 ], [ -52.49818167, -24.81132639 ], [ -52.49803111, -24.81127944 ], [ -52.49778083, -24.81125389 ], [ -52.49769472, -24.81120889 ], [ -52.49753889, -24.81117194 ], [ -52.49740222, -24.81112222 ], [ -52.49723139, -24.81103583 ], [ -52.49708972, -24.81096694 ], [ -52.497015, -24.81091694 ], [ -52.49689472, -24.81085028 ], [ -52.49663722, -24.81065528 ], [ -52.49650417, -24.81054 ], [ -52.49643917, -24.81046278 ], [ -52.49632583, -24.81036806 ], [ -52.4962175, -24.81028861 ], [ -52.49608972, -24.81025111 ], [ -52.49592528, -24.81012611 ], [ -52.495817836236291, -24.810036783283344 ], [ -52.495805, -24.81002611 ], [ -52.49566972, -24.809926390000012 ], [ -52.49558222, -24.80986083 ], [ -52.49549722, -24.80983806 ], [ -52.495425, -24.80977806 ], [ -52.49533389, -24.80970528 ], [ -52.49524167, -24.80962167 ], [ -52.49518694, -24.80956028 ], [ -52.49518833, -24.80941944 ], [ -52.49518694, -24.80932778 ], [ -52.49516222, -24.80921528 ], [ -52.49512611, -24.80911556 ], [ -52.49496444, -24.808935 ], [ -52.49501417, -24.80890722 ], [ -52.49493917, -24.80885306 ], [ -52.49484611, -24.80879167 ], [ -52.49471722, -24.80871583 ], [ -52.49467833, -24.80868278 ], [ -52.49455194, -24.808585 ], [ -52.49442, -24.80849083 ], [ -52.49437611, -24.80844528 ], [ -52.49429, -24.80833306 ], [ -52.49424778, -24.80817806 ], [ -52.49418556, -24.8081 ], [ -52.49408917, -24.80801667 ], [ -52.49397667, -24.807955 ], [ -52.49382722, -24.80791861 ], [ -52.49369722, -24.80796417 ], [ -52.49364457225365, -24.808040540404896 ], [ -52.493506476709094, -24.808276015353549 ], [ -52.493490358167122, -24.808390827722196 ], [ -52.493346763187354, -24.808422105501929 ], [ -52.493283158542425, -24.808567187873582 ], [ -52.493250230804378, -24.808712425888789 ], [ -52.493179208280488, -24.808829962665477 ], [ -52.493180561513896, -24.808942892486872 ], [ -52.493022372128351, -24.80902152950409 ], [ -52.492871284411656, -24.809149353354552 ], [ -52.492800685071607, -24.80929434993201 ], [ -52.492710983962041, -24.80941464329857 ], [ -52.492673866593996, -24.809584550328598 ], [ -52.492556745431912, -24.809723845868334 ], [ -52.492402844807792, -24.80987695293171 ], [ -52.492243349767676, -24.810001878242474 ], [ -52.492084960406558, -24.810006646398055 ], [ -52.491928532176765, -24.810147395960485 ], [ -52.491771360858273, -24.810223385042718 ], [ -52.491654076971685, -24.810319426788862 ], [ -52.491597928800957, -24.810462316028694 ], [ -52.491536812655667, -24.810607182013186 ], [ -52.491508895760305, -24.810751929624569 ], [ -52.491304193590508, -24.81086451879332 ], [ -52.491276653362355, -24.811043180270115 ], [ -52.491156403159003, -24.811190820012385 ], [ -52.490992804682783, -24.811297242150534 ], [ -52.490834841749404, -24.811373460666172 ], [ -52.490701498511314, -24.8113378306256 ], [ -52.490587217431909, -24.811339064510303 ], [ -52.490360423840265, -24.811359266565667 ], [ -52.490214129468093, -24.811197345262173 ], [ -52.490198887065539, -24.811103689757903 ], [ -52.49004009625974, -24.81104486081907 ], [ -52.489930870506697, -24.811056682413632 ], [ -52.489783122716823, -24.811058043048895 ], [ -52.489601556929607, -24.810915356659844 ], [ -52.489481329152234, -24.810771434869903 ], [ -52.48943948277747, -24.810627801246191 ], [ -52.489283887127272, -24.810484935121096 ], [ -52.489122364650655, -24.810405482275897 ], [ -52.488931815231894, -24.810190653438138 ], [ -52.488727292572626, -24.81006154919406 ], [ -52.488568938114227, -24.810079828384506 ], [ -52.488408657465236, -24.809960009109876 ], [ -52.488341615267416, -24.809761112856204 ], [ -52.488263196823439, -24.809619301902636 ], [ -52.488181361917505, -24.809475775639324 ], [ -52.488100823475826, -24.809331350949567 ], [ -52.487995802116991, -24.809187923402696 ], [ -52.487988699489733, -24.809043634515227 ], [ -52.487988770360033, -24.808956928810744 ], [ -52.487988817193582, -24.808899632884074 ], [ -52.487947749520927, -24.808755572048248 ], [ -52.488006349676745, -24.808610671333177 ], [ -52.488075469318268, -24.808479120459314 ], [ -52.48807433061053, -24.808357895711232 ], [ -52.488217803406044, -24.808175007712027 ], [ -52.48834269105955, -24.808074645196339 ], [ -52.488327303123043, -24.808029651630839 ], [ -52.488456216816111, -24.807929046116332 ], [ -52.488460819980695, -24.807930047974065 ], [ -52.488459659805251, -24.807929011853936 ], [ -52.488635324735412, -24.807726396658172 ], [ -52.488771862507384, -24.807564709304497 ], [ -52.488876528696672, -24.807419198920211 ], [ -52.489041140761081, -24.807273037560091 ], [ -52.489261588703584, -24.807153557891603 ], [ -52.489419117904554, -24.807071001054155 ], [ -52.489576468462765, -24.807002612611534 ], [ -52.489704661000864, -24.806977522612119 ], [ -52.489891023255218, -24.806846139378496 ], [ -52.490048689302903, -24.806795120443628 ], [ -52.490207891000701, -24.806868054893325 ], [ -52.490365126936354, -24.806764399509902 ], [ -52.490523614841905, -24.806744089848404 ], [ -52.490679317314594, -24.806581192204501 ], [ -52.490836171966656, -24.806469679794294 ], [ -52.49099461720634, -24.806483937589075 ], [ -52.491115106661915, -24.806385287618454 ], [ -52.49130912663005, -24.806307572430594 ], [ -52.491467219879155, -24.806297700706139 ], [ -52.491624899352537, -24.806231696157582 ], [ -52.491745138489016, -24.806234858681545 ], [ -52.49189181094777, -24.806233399525951 ], [ -52.492098788707992, -24.806169718997108 ], [ -52.492257022135107, -24.806166573172565 ], [ -52.492406144379167, -24.806228312656287 ], [ -52.492574422284925, -24.806237208329353 ], [ -52.492732610164694, -24.806213708775232 ], [ -52.492884460874109, -24.80607864273626 ], [ -52.49310194, -24.80596083 ], [ -52.49324583, -24.805923329999988 ], [ -52.49339333, -24.80585333 ], [ -52.49355472, -24.80580194 ], [ -52.49375917, -24.80572556 ], [ -52.493955, -24.80562583 ], [ -52.49411, -24.80558972 ], [ -52.49425111, -24.80546389 ], [ -52.49430028, -24.80537944 ], [ -52.49429472, -24.80527861 ], [ -52.49437111, -24.80512083 ], [ -52.49444806, -24.8049275 ], [ -52.49449944, -24.80471667 ], [ -52.49454861, -24.80457556 ], [ -52.49454917, -24.80442167 ], [ -52.494535, -24.8042825 ], [ -52.49445611, -24.80410139 ], [ -52.49442917, -24.80398917 ], [ -52.49429917, -24.803840829999988 ], [ -52.49409417, -24.80369417 ], [ -52.49395306, -24.80358583 ], [ -52.49377111, -24.80341083 ], [ -52.49362056, -24.80329306 ], [ -52.49347528, -24.80318917 ], [ -52.49341222, -24.80312444 ], [ -52.49333583, -24.80309028 ], [ -52.49320028, -24.80312472 ], [ -52.49306778, -24.80316472 ], [ -52.49296194, -24.80318639 ], [ -52.49284972, -24.80323417 ], [ -52.49282333, -24.8033025 ], [ -52.49276889, -24.80338389 ], [ -52.49264917, -24.803499169999988 ], [ -52.49252806, -24.80359972 ], [ -52.49243889000001, -24.80368861 ], [ -52.49232167, -24.803795 ], [ -52.49219333, -24.80398056 ], [ -52.49207306, -24.80418167 ], [ -52.49207361, -24.80434333 ], [ -52.49145639, -24.80512639 ], [ -52.49132, -24.8050025 ], [ -52.49115111, -24.80472389 ], [ -52.49108167, -24.8045025 ], [ -52.49100556, -24.80432139 ], [ -52.49091806, -24.8042175 ], [ -52.49083833, -24.80406278 ], [ -52.49074972, -24.80393139 ], [ -52.49066167, -24.80378417 ], [ -52.49052361, -24.80366194 ], [ -52.49045139, -24.80344611 ], [ -52.49037278, -24.80328806 ], [ -52.49027528, -24.80314194 ], [ -52.49019389, -24.803019169999988 ], [ -52.49009028, -24.80295056 ], [ -52.48993778, -24.80287889 ], [ -52.48969139, -24.80275694 ], [ -52.48942917, -24.80277111 ], [ -52.48928583, -24.80277611 ], [ -52.4891, -24.80284472 ], [ -52.48900917, -24.80290056 ], [ -52.48896194, -24.80300694 ], [ -52.48902556, -24.80315194 ], [ -52.48908972, -24.80327111 ], [ -52.48916556, -24.80348889 ], [ -52.48926639, -24.80371639 ], [ -52.48927222, -24.80381 ], [ -52.48934, -24.804009719999989 ], [ -52.48915528, -24.80437639 ], [ -52.48900556, -24.80449722 ], [ -52.48896111, -24.80458806 ], [ -52.48874944, -24.80474667 ], [ -52.48857917, -24.80479667 ], [ -52.48841778, -24.80486778 ], [ -52.48825556, -24.80491639 ], [ -52.4880875, -24.80492333 ], [ -52.48801167, -24.80490333 ], [ -52.48787056, -24.80481806 ], [ -52.48772361, -24.80472528 ], [ -52.48759, -24.80458056 ], [ -52.48751528, -24.80448778 ], [ -52.48744083, -24.80436139 ], [ -52.48737111, -24.80428667 ], [ -52.48730833, -24.80420444 ], [ -52.48728528, -24.80408556 ], [ -52.48723444, -24.80393528 ], [ -52.4871775, -24.80375917 ], [ -52.487055, -24.80367611 ], [ -52.487003365929283, -24.803632100224743 ], [ -52.48691389, -24.80355583 ], [ -52.48683528, -24.80337306 ], [ -52.4868575, -24.80329833 ], [ -52.48676944, -24.80315167 ], [ -52.48668056, -24.80300444 ], [ -52.48664083, -24.80283917 ], [ -52.48649778, -24.80263417 ], [ -52.48641722, -24.80246028 ], [ -52.48635722, -24.80227778 ], [ -52.486245, -24.80197833 ], [ -52.48614944, -24.80180111 ], [ -52.48606, -24.80160417 ], [ -52.48597278, -24.80141611 ], [ -52.48587, -24.80117278 ], [ -52.48580611, -24.80094056 ], [ -52.485842473321846, -24.800838005979539 ], [ -52.48585556, -24.80080111 ], [ -52.48592, -24.80065389 ], [ -52.48596167, -24.80048278 ], [ -52.48605722, -24.80026139 ], [ -52.48607139, -24.80012639 ], [ -52.48613444, -24.79989806 ], [ -52.48610556, -24.799775 ], [ -52.48615056, -24.79948333 ], [ -52.48619167, -24.799278889999989 ], [ -52.48620083, -24.79904861 ], [ -52.48619694, -24.79886417 ], [ -52.486235, -24.79861083 ], [ -52.486240643180324, -24.798495944012423 ], [ -52.48624583, -24.79839028 ], [ -52.48629944, -24.79815722 ], [ -52.48635528, -24.79801389 ], [ -52.48641611, -24.79788083 ], [ -52.48650167, -24.79778389 ], [ -52.48661417, -24.79773944 ], [ -52.48670417, -24.79779028 ], [ -52.48688389, -24.79780639 ], [ -52.48697389, -24.79778389 ], [ -52.48719139, -24.79768972 ], [ -52.487211036911823, -24.7976721269915 ], [ -52.48728444, -24.79760639 ], [ -52.48734722, -24.7975375 ], [ -52.48753167, -24.79743556 ], [ -52.48769333, -24.79732306 ], [ -52.48788944, -24.79725139 ], [ -52.48803111, -24.79718861 ], [ -52.48814722, -24.79713944 ], [ -52.48831417, -24.797055 ], [ -52.488336853587121, -24.797044263951353 ], [ -52.48850611, -24.79696417 ], [ -52.48871667, -24.79683806 ], [ -52.48892556, -24.79670167 ], [ -52.48917278, -24.7965175 ], [ -52.48929028, -24.79643972 ], [ -52.48944167, -24.79634917 ], [ -52.48958417, -24.79622944 ], [ -52.48978806, -24.79607417 ], [ -52.48997361, -24.79598139 ], [ -52.49011111, -24.79592611 ], [ -52.49024917, -24.79590167 ], [ -52.49040167, -24.795905 ], [ -52.490645, -24.79591111 ], [ -52.49082694, -24.79597556 ], [ -52.49110472, -24.79607861 ], [ -52.49135806, -24.79627361 ], [ -52.49149028, -24.79636528 ], [ -52.49163194, -24.79650333 ], [ -52.49174361, -24.79657694 ], [ -52.49191139, -24.7966825 ], [ -52.49209611, -24.7968125 ], [ -52.49222028, -24.79697111 ], [ -52.49244528, -24.79718417 ], [ -52.492515517123309, -24.797240807739328 ], [ -52.49261889, -24.79732417 ], [ -52.49283861, -24.79741361 ], [ -52.49310806, -24.7974725 ], [ -52.49327917, -24.7974625 ], [ -52.49345417, -24.79741833 ], [ -52.49347842597507, -24.797476142331163 ], [ -52.493594256230224, -24.797410155464096 ], [ -52.493666839711466, -24.797268121788271 ], [ -52.493960343605778, -24.796931647838093 ], [ -52.494270050165056, -24.796544176393521 ], [ -52.49433635374033, -24.796381708552701 ], [ -52.494432166780079, -24.796222015926016 ], [ -52.494765839294054, -24.795985726091157 ], [ -52.495088416752409, -24.795805889449845 ], [ -52.495320501086837, -24.795684924835207 ], [ -52.495668255868146, -24.7953942260717 ], [ -52.495772780938758, -24.795045732546424 ], [ -52.495757784719927, -24.794611932767427 ], [ -52.495766375191707, -24.794066475220895 ], [ -52.49572522416797, -24.793579663755349 ], [ -52.495731798738717, -24.793064023089919 ], [ -52.495861332140052, -24.792343270941753 ], [ -52.495906757086402, -24.791933065658359 ], [ -52.495849238333619, -24.791475221287381 ], [ -52.495624116116346, -24.790782212522704 ], [ -52.495602059775194, -24.790493584467626 ], [ -52.495602537390447, -24.790169771561548 ], [ -52.495602698926973, -24.790060260180276 ], [ -52.495581681722811, -24.789726294427989 ], [ -52.495563556723432, -24.789295324656212 ], [ -52.495448349152596, -24.788826859994185 ], [ -52.495403320328755, -24.788544240136805 ], [ -52.495376661463375, -24.788259359952189 ], [ -52.495373953556708, -24.788049996606205 ], [ -52.49538307477917, -24.787779567011629 ], [ -52.495458054176396, -24.78738423562903 ], [ -52.495515757645144, -24.787181401802329 ], [ -52.495640192570377, -24.786827562581788 ], [ -52.495766155208393, -24.786559938208448 ], [ -52.495857608490219, -24.786441552479847 ], [ -52.496012586696061, -24.786317204440291 ], [ -52.496461444064536, -24.785923281800265 ], [ -52.495979640298565, -24.785823993422763 ], [ -52.49582184353968, -24.785861713501252 ], [ -52.495663791979993, -24.785878191410646 ], [ -52.495505801046761, -24.78589939615447 ], [ -52.49534931115209, -24.785900934116544 ], [ -52.495256834481403, -24.785757392179622 ], [ -52.49518622657807, -24.785640759969993 ], [ -52.495046305717992, -24.78547033772551 ], [ -52.495024509590507, -24.785353392496255 ], [ -52.49486609333767, -24.78536384990791 ], [ -52.494708136062584, -24.785364036237439 ], [ -52.494549041099418, -24.785293390185263 ], [ -52.494390371532397, -24.785255898787028 ], [ -52.49428249408065, -24.785189241104458 ], [ -52.494102745890359, -24.785191083066671 ], [ -52.493915424753119, -24.7853162035161 ], [ -52.493777696069451, -24.785339363602816 ], [ -52.493600325572565, -24.785374367570512 ], [ -52.493439820785696, -24.785302844626596 ], [ -52.493282536842877, -24.785250262339773 ], [ -52.493123245381447, -24.785163125332424 ], [ -52.49296495498384, -24.78505778643536 ], [ -52.492854122527945, -24.784989016195162 ], [ -52.492696497310298, -24.785051156533825 ], [ -52.492539357947436, -24.785150391005391 ], [ -52.492381703092747, -24.785183364871635 ], [ -52.49222424136142, -24.78530870895521 ], [ -52.492066535195519, -24.785355503433319 ], [ -52.491908159336482, -24.785313868051063 ], [ -52.491750499484738, -24.785333472589862 ], [ -52.491591434502446, -24.785355359428706 ], [ -52.491433707361367, -24.785311160098381 ], [ -52.491274815298645, -24.785329911173232 ], [ -52.491116397737898, -24.785291479869269 ], [ -52.490963345192441, -24.785258484313392 ], [ -52.490799259631345, -24.785245169035218 ], [ -52.49064144338633, -24.785243093736458 ], [ -52.490483150499955, -24.785219687516534 ], [ -52.490324806954909, -24.785217087332818 ], [ -52.490166244619054, -24.785185136281019 ], [ -52.490017359787224, -24.785123041189856 ], [ -52.489847856613494, -24.785106912780993 ], [ -52.489835599874958, -24.785116770214909 ], [ -52.489737132842606, -24.785130113305325 ], [ -52.489690908776531, -24.78513571378878 ], [ -52.489578512190256, -24.785272367651523 ], [ -52.489376579586114, -24.785317207537002 ], [ -52.48921599411355, -24.785138144769125 ], [ -52.489058822082754, -24.78520971276734 ], [ -52.488900444405544, -24.785203598746492 ], [ -52.488741512965802, -24.785163756833651 ], [ -52.48858324411998, -24.785152978880202 ], [ -52.488425825159894, -24.78521152713769 ], [ -52.488267417325233, -24.785207160028509 ], [ -52.488109999737382, -24.785272674877032 ], [ -52.487949598088328, -24.785199447451298 ], [ -52.48779266457074, -24.785197541095151 ], [ -52.487643751443798, -24.785147045523171 ], [ -52.487474431906399, -24.785127531322978 ], [ -52.48731623965913, -24.785073423295934 ], [ -52.487208924128119, -24.785151607199037 ], [ -52.487001775755473, -24.785288525648102 ], [ -52.486843660430885, -24.785238481539572 ], [ -52.486685684171633, -24.785261756997784 ], [ -52.486526598251857, -24.785196872005741 ], [ -52.486368810036758, -24.785229746462424 ], [ -52.486210310866824, -24.785278370047163 ], [ -52.486104941297569, -24.785314579035116 ], [ -52.486052690066586, -24.785339780578465 ], [ -52.485893713832546, -24.785280764960323 ], [ -52.485748230450206, -24.785310399419533 ], [ -52.485638443305454, -24.785456574842694 ], [ -52.485422797075557, -24.785527752710401 ], [ -52.485369140572423, -24.78547624546221 ], [ -52.484480133162748, -24.78507475581274 ], [ -52.483255211029423, -24.786095783625626 ], [ -52.4826546310236, -24.786456816948537 ], [ -52.482631939097935, -24.786302270973383 ], [ -52.482450194823166, -24.786428864063598 ], [ -52.482259077466999, -24.786532526485576 ], [ -52.482154699345358, -24.786596050289511 ], [ -52.482043859569821, -24.786662124293507 ], [ -52.481823612987988, -24.786789031295857 ], [ -52.481604100679434, -24.786912596366346 ], [ -52.481381442513275, -24.787049294340168 ], [ -52.481162418584454, -24.787183595659897 ], [ -52.480915916740273, -24.787335207501712 ], [ -52.480689387889456, -24.787472918285196 ], [ -52.480477841663607, -24.787605403108621 ], [ -52.480287648434967, -24.787728852208431 ], [ -52.480105328517681, -24.78785542063995 ], [ -52.479946281886129, -24.787988798095387 ], [ -52.47976515609971, -24.788120168087097 ], [ -52.479584621196061, -24.788254256742569 ], [ -52.479472167337967, -24.788403472335595 ], [ -52.479369513619297, -24.788560026489122 ], [ -52.479281376613237, -24.78870469398009 ], [ -52.479186854138533, -24.788853616608915 ], [ -52.4790837327674, -24.788980465804073 ], [ -52.478965898471756, -24.789106227164165 ], [ -52.478823089129655, -24.78922075776045 ], [ -52.478693421484003, -24.789298402359655 ], [ -52.478553966979014, -24.78936716863566 ], [ -52.478406213760188, -24.789430931077312 ], [ -52.478276810171195, -24.789480360576963 ], [ -52.478241979026329, -24.789490604321525 ], [ -52.478234742514786, -24.789475841316282 ], [ -52.475403098562232, -24.783705659085037 ], [ -52.474204953209906, -24.781324690577168 ], [ -52.474122539389938, -24.781160916866753 ], [ -52.47407694383422, -24.781117856973481 ], [ -52.474074337954264, -24.780991480866497 ], [ -52.474089586406478, -24.780829450809939 ], [ -52.474011210263797, -24.780685889122033 ], [ -52.473911875809954, -24.780651383396304 ], [ -52.473754014023633, -24.780677890523997 ], [ -52.473594948442013, -24.78061303911042 ], [ -52.473436283931512, -24.780572639768476 ], [ -52.473276641554712, -24.780531767736065 ], [ -52.473119124918753, -24.78051571562996 ], [ -52.472959688450295, -24.78041634979396 ], [ -52.472800150049032, -24.780375088284412 ], [ -52.472641518431544, -24.780288470116265 ], [ -52.472482013630561, -24.780165109294078 ], [ -52.472321802236024, -24.780058622318588 ], [ -52.472162324590492, -24.779953620977178 ], [ -52.4720038188524, -24.779894469733605 ], [ -52.471887023967433, -24.779961687788717 ], [ -52.471418105171004, -24.780160791195478 ], [ -52.468625532456151, -24.779977828640586 ], [ -52.467402766099681, -24.779797583241603 ], [ -52.465594504203402, -24.779330958943984 ], [ -52.465528433284376, -24.779254765325206 ], [ -52.461735688285131, -24.7783197374326 ], [ -52.459628993519011, -24.777515633098332 ], [ -52.459286133809776, -24.777382630828768 ], [ -52.458326123408334, -24.776892837305489 ], [ -52.455997131029491, -24.775332822098004 ], [ -52.455971315996841, -24.775171536115113 ], [ -52.453586250135743, -24.775330152945386 ], [ -52.451043901337684, -24.775503529722247 ], [ -52.450723862801311, -24.77255092296755 ], [ -52.450583247291441, -24.771224681263512 ], [ -52.450377937849794, -24.769190161216518 ], [ -52.450266909772601, -24.768843691806001 ], [ -52.450335114302305, -24.768631835201536 ], [ -52.450322095876587, -24.768494980528931 ], [ -52.450177612047014, -24.766553776765438 ], [ -52.449990719100541, -24.765337147645553 ], [ -52.449868791902027, -24.764303520867855 ], [ -52.44974391727807, -24.762937783385595 ], [ -52.449616157546878, -24.761728526482951 ], [ -52.446318344904824, -24.76037103810496 ], [ -52.443689580193983, -24.75930572368673 ], [ -52.443283257174194, -24.759137423038077 ], [ -52.440139125897382, -24.757835402395671 ], [ -52.440055425933089, -24.757582929001515 ], [ -52.439750196825067, -24.757636879728256 ], [ -52.439447956644756, -24.757658475431036 ], [ -52.439205048811516, -24.757731691139583 ], [ -52.438960038557994, -24.757768357089887 ], [ -52.438767256728255, -24.757789351414736 ], [ -52.438723198554463, -24.757794652393304 ], [ -52.438440886248891, -24.757827971781023 ], [ -52.438230616981279, -24.757850307181926 ], [ -52.437869842432058, -24.757863883660725 ], [ -52.437598317666868, -24.757890869428735 ], [ -52.437170912438731, -24.757931811066477 ], [ -52.436912855865465, -24.758012121193811 ], [ -52.436658804526104, -24.75798503137483 ], [ -52.436259362097999, -24.758032745279959 ], [ -52.436015790165399, -24.758082846671154 ], [ -52.435930034222551, -24.758110216984626 ], [ -52.435728200825004, -24.758174815112387 ], [ -52.435442135659507, -24.758270380222235 ], [ -52.43509352548309, -24.758353090010949 ], [ -52.434853668827557, -24.758434034957826 ], [ -52.434604436392057, -24.758490779877938 ], [ -52.434298174160176, -24.758584369194281 ], [ -52.434015166135502, -24.75867078254149 ], [ -52.433756335046567, -24.758804549611572 ], [ -52.433499679938947, -24.758912561249812 ], [ -52.433371515251039, -24.758963540456129 ], [ -52.433138868112856, -24.759078364800914 ], [ -52.432908879342044, -24.759200838474573 ], [ -52.432664796520974, -24.759344666024369 ], [ -52.432396234484578, -24.759561415064525 ], [ -52.432129916670128, -24.759775613922411 ], [ -52.431896604076897, -24.759936132249525 ], [ -52.431716745817056, -24.760058395835046 ], [ -52.431495977127526, -24.760200463704859 ], [ -52.431341671905429, -24.760291782217777 ], [ -52.431107000818443, -24.760471996753974 ], [ -52.430825331312839, -24.76062403625545 ], [ -52.430644633419121, -24.760785404549477 ], [ -52.430491910644378, -24.760937295337332 ], [ -52.430180311458088, -24.761299646665833 ], [ -52.43007250022093, -24.761444426357617 ], [ -52.43006327341233, -24.761484966800435 ], [ -52.430223232407329, -24.761588672785084 ], [ -52.430275685387059, -24.761731952091882 ], [ -52.430248832086974, -24.76187755457363 ], [ -52.430281096973516, -24.761960424678435 ], [ -52.430304881645192, -24.762021513944376 ], [ -52.430365862974682, -24.762165404247693 ], [ -52.430586534989615, -24.76230692608533 ], [ -52.430599090943296, -24.762452100916242 ], [ -52.430630698988352, -24.762596220107437 ], [ -52.430703639428373, -24.762740002851039 ], [ -52.430723596965784, -24.762884075849367 ], [ -52.430724282551829, -24.763028613873935 ], [ -52.430591660259388, -24.76317388437019 ], [ -52.430565474703997, -24.763319253296547 ], [ -52.43058487057354, -24.763462860491853 ], [ -52.430567428343807, -24.763607723164238 ], [ -52.430576487114941, -24.763751903989608 ], [ -52.430588564769316, -24.763896053461163 ], [ -52.430593525419177, -24.764041348426453 ], [ -52.430580115326762, -24.764185949121956 ], [ -52.430603286733685, -24.764330204048537 ], [ -52.430637916906683, -24.764473586164083 ], [ -52.430756855873128, -24.764688892800777 ], [ -52.430914318099099, -24.764724532348197 ], [ -52.431073147431562, -24.764777235871762 ], [ -52.431230438064475, -24.764696038038185 ], [ -52.43138686101306, -24.764621910761186 ], [ -52.431546425574773, -24.764655306919167 ], [ -52.431793131701831, -24.764607800923983 ], [ -52.431862745777082, -24.764696021752155 ], [ -52.432022888271092, -24.764811061892022 ], [ -52.432025465272943, -24.764921919242202 ], [ -52.432024483293844, -24.765044901402398 ], [ -52.432055026166417, -24.765174131955717 ], [ -52.432028814800567, -24.765327888299634 ], [ -52.432048976248318, -24.765463001821509 ], [ -52.431982129026387, -24.765608140892159 ], [ -52.431874112536775, -24.765613692217311 ], [ -52.431697259114017, -24.765695523227183 ], [ -52.431588517308064, -24.765765296778831 ], [ -52.431491955739276, -24.765937999454806 ], [ -52.43133424976368, -24.765983083435039 ], [ -52.431149603548917, -24.766058656162137 ], [ -52.431020974132238, -24.766253757232775 ], [ -52.43086390186172, -24.766361582386107 ], [ -52.430652822563701, -24.766496841483793 ], [ -52.430550912433638, -24.766652147508559 ], [ -52.430322984671683, -24.766787456315114 ], [ -52.430222684702741, -24.76693436767923 ], [ -52.43005461410452, -24.767078451735806 ], [ -52.429888915744556, -24.76722637109053 ], [ -52.429768063668014, -24.767385433999202 ], [ -52.429612232537401, -24.767599352571043 ], [ -52.429400013255126, -24.767763935598374 ], [ -52.429368310714182, -24.767890648051473 ], [ -52.4293044384358, -24.76805379300291 ], [ -52.429245018125542, -24.768198832709743 ], [ -52.429056640448863, -24.768308981265289 ], [ -52.429024434443726, -24.768489952244675 ], [ -52.429031648288586, -24.76863482822921 ], [ -52.429028154575271, -24.768778841553296 ], [ -52.429063232053331, -24.768878183356719 ], [ -52.429161940228759, -24.769066638328422 ], [ -52.429168292919549, -24.769210868552051 ], [ -52.429230814701008, -24.769355566530567 ], [ -52.429228545008087, -24.76949923944187 ], [ -52.429299417634923, -24.769643035552996 ], [ -52.42938188290892, -24.769787738120449 ], [ -52.429514940705097, -24.769930043691502 ], [ -52.429489710220167, -24.770012637477958 ], [ -52.429470714346309, -24.770074821753099 ], [ -52.429465411834869, -24.77022009791914 ], [ -52.429396221511773, -24.770328312259998 ], [ -52.429307891583214, -24.770510473781954 ], [ -52.429093762385996, -24.770656546819762 ], [ -52.429014226523066, -24.770801541505058 ], [ -52.428770078150428, -24.770921251570421 ], [ -52.428641861686238, -24.770949563517657 ], [ -52.428454237468479, -24.771059535198962 ], [ -52.428297742872765, -24.771190462476842 ], [ -52.428140099016872, -24.771206586975669 ], [ -52.428022191164615, -24.771244419556982 ], [ -52.427924028598184, -24.771308540490178 ], [ -52.427771284694614, -24.771355144679088 ], [ -52.427528978323345, -24.771410612973739 ], [ -52.427371410357082, -24.771417535222753 ], [ -52.427245632381656, -24.771504654112977 ], [ -52.427171687394491, -24.771649900771624 ], [ -52.427058211746917, -24.771701904327049 ], [ -52.426923427584519, -24.771679488062777 ], [ -52.426771907712073, -24.771681433069677 ], [ -52.426651176150401, -24.771683451920087 ], [ -52.426511257357191, -24.771684955497594 ], [ -52.426327154430076, -24.77168670929202 ], [ -52.426226145884932, -24.771687014503712 ], [ -52.426117405863991, -24.77164094978124 ], [ -52.425960499330245, -24.771722256784241 ], [ -52.425802591525624, -24.771750849098382 ], [ -52.425644059005485, -24.771709505939778 ], [ -52.425484660654767, -24.771605829316975 ], [ -52.425326514844883, -24.771613225909764 ], [ -52.425168208596254, -24.771607274202637 ], [ -52.425009908462904, -24.771618512437836 ], [ -52.424852132369331, -24.771641647079718 ], [ -52.424694367218478, -24.771682404815454 ], [ -52.424535825205815, -24.771672813373861 ], [ -52.424436773348106, -24.771639729722988 ], [ -52.424306711145775, -24.771659000427771 ], [ -52.424201112058412, -24.77171313147155 ], [ -52.424044292594189, -24.771809327128672 ], [ -52.424039005072871, -24.77194950789784 ], [ -52.42388854733484, -24.772128117286801 ], [ -52.42374611, -24.77223194 ], [ -52.42372861, -24.77234167 ], [ -52.42377639, -24.77260944 ], [ -52.42372278, -24.77288889 ], [ -52.423815, -24.77322472 ], [ -52.423815, -24.773224722222221 ], [ -52.42390833, -24.77359167 ], [ -52.42389417, -24.77373944 ], [ -52.42385472, -24.77388722 ], [ -52.42396778, -24.77399083 ], [ -52.424042566986188, -24.774047354415984 ], [ -52.42413722, -24.77411889 ], [ -52.42419444, -24.77420306 ], [ -52.42426056, -24.77418778 ], [ -52.424516924213208, -24.774229398490107 ], [ -52.424644709209836, -24.774263781152282 ], [ -52.424802618360808, -24.774236757304841 ], [ -52.424961542195994, -24.774367634399621 ], [ -52.425119768357909, -24.774314707158702 ], [ -52.425279544558201, -24.774426364153626 ], [ -52.425439186612998, -24.774551339588999 ], [ -52.425520226858964, -24.774717521872528 ], [ -52.425536228598759, -24.774807462051548 ], [ -52.42547105374382, -24.774952736915584 ], [ -52.425458193160821, -24.77509726916314 ], [ -52.425525564990956, -24.775259541002942 ], [ -52.425684897337021, -24.775284814848515 ], [ -52.42584353376364, -24.775317854964541 ], [ -52.426002087149776, -24.775345022844238 ], [ -52.426159793058602, -24.775298373023166 ], [ -52.426405903153729, -24.775196681674579 ], [ -52.426504546052804, -24.775132403858816 ], [ -52.426656475394175, -24.775131222566749 ], [ -52.426760042546761, -24.775095389538095 ], [ -52.427678854722799, -24.774949780915104 ], [ -52.427837616609544, -24.774993436561136 ], [ -52.427996312257662, -24.775052812771211 ], [ -52.428155731211035, -24.775161111240482 ], [ -52.428313351642302, -24.775107091304523 ], [ -52.428517709669833, -24.77516744344463 ], [ -52.428631264201343, -24.775227346080374 ], [ -52.428825287297215, -24.775309055439216 ], [ -52.428963731133059, -24.775307734169118 ], [ -52.429107400643993, -24.775386219672086 ], [ -52.42926668117655, -24.775425386654824 ], [ -52.429424772136507, -24.775490658210135 ], [ -52.42958464330583, -24.77555461160819 ], [ -52.429742865341737, -24.775553122697854 ], [ -52.429901007951543, -24.775542604852269 ], [ -52.430059080000177, -24.775530476263157 ], [ -52.430215392940283, -24.775379343648947 ], [ -52.43040750197698, -24.775293947586324 ], [ -52.430530883676795, -24.775276302683164 ], [ -52.43068751214124, -24.775156367406055 ], [ -52.430845627879066, -24.775122682047058 ], [ -52.431003799727769, -24.775118889012038 ], [ -52.431161142459906, -24.775042948392507 ], [ -52.431318385034331, -24.774971301291224 ], [ -52.431476158671295, -24.774977078071377 ], [ -52.431634668029822, -24.774937503592721 ], [ -52.431833087610798, -24.774991354344703 ], [ -52.431951857138785, -24.774999269936018 ], [ -52.432125005706588, -24.775133031053986 ], [ -52.432241276398003, -24.77527617630464 ], [ -52.432288961285245, -24.775355301985815 ], [ -52.432348813799614, -24.775419809164458 ], [ -52.432326039160856, -24.775564524969553 ], [ -52.432267802357238, -24.775708908228534 ], [ -52.432158670984748, -24.7757828601362 ], [ -52.432070143758537, -24.775812368211401 ], [ -52.432071249216321, -24.775919139168778 ], [ -52.432048884268575, -24.776063750934782 ], [ -52.431968273717629, -24.776208865915624 ], [ -52.431915680096253, -24.776353690498176 ], [ -52.431822894596863, -24.776498541683122 ], [ -52.431743134361298, -24.776631105641815 ], [ -52.431762554569218, -24.776734072919524 ], [ -52.431746782586075, -24.776888609447028 ], [ -52.431662127946794, -24.777024602274174 ], [ -52.431621656201806, -24.777168945727382 ], [ -52.431575464129487, -24.777314223988046 ], [ -52.431435280347962, -24.77738117438706 ], [ -52.431436782853318, -24.777509650792123 ], [ -52.431393308461502, -24.777605113200941 ], [ -52.431376682462208, -24.777749718890131 ], [ -52.431441582155308, -24.77789292449895 ], [ -52.431424730357932, -24.77803820413726 ], [ -52.431424208695354, -24.778182035249749 ], [ -52.431433558399092, -24.778279174518076 ], [ -52.431520961051966, -24.778398287527022 ], [ -52.431594405120237, -24.778541417127006 ], [ -52.431598665184922, -24.778695721463766 ], [ -52.431600450350452, -24.778849228150349 ], [ -52.431625167139018, -24.778975331904299 ], [ -52.431639624297198, -24.779119665940378 ], [ -52.431690555270919, -24.779262633807136 ], [ -52.431654601180647, -24.779408492884638 ], [ -52.431644624808634, -24.779553060574411 ], [ -52.431649743483817, -24.779697487559737 ], [ -52.431672923890432, -24.779841734494255 ], [ -52.431727239666621, -24.779985712901457 ], [ -52.431774421158487, -24.780155415392631 ], [ -52.4317354630914, -24.780274556845313 ], [ -52.431792214424441, -24.780418424314554 ], [ -52.431816163303594, -24.780562002452363 ], [ -52.431819598016723, -24.780707168917107 ], [ -52.431841034522257, -24.780851458072529 ], [ -52.431793197537289, -24.780996365933824 ], [ -52.431829504069029, -24.781140512856172 ], [ -52.431855896852561, -24.781284710708064 ], [ -52.431759256261202, -24.781429823770399 ], [ -52.431814999997727, -24.781578772421323 ], [ -52.431890386621355, -24.781708767995948 ], [ -52.431793175007883, -24.781854170082941 ], [ -52.431759437842665, -24.781994627318156 ], [ -52.431401953718243, -24.782239373671352 ], [ -52.431265468404867, -24.782410060979021 ], [ -52.431088031788398, -24.78246586871817 ], [ -52.430949628706642, -24.782467235728255 ], [ -52.430703199645322, -24.782547003717301 ], [ -52.430544906802453, -24.782551124144387 ], [ -52.430387126374995, -24.782578765616329 ], [ -52.430278080666689, -24.782554919537294 ], [ -52.430163302106358, -24.782538127370056 ], [ -52.430040058688064, -24.782496187524796 ], [ -52.429881389890276, -24.782459384695365 ], [ -52.429722648633096, -24.782363173445439 ], [ -52.429564203181066, -24.78238512672322 ], [ -52.429405067547279, -24.782321662111205 ], [ -52.429246502804432, -24.782293909061661 ], [ -52.42908870344754, -24.782315747828918 ], [ -52.428930765646996, -24.782360108113195 ], [ -52.428772985193312, -24.782322357780682 ], [ -52.428614740174069, -24.782400810003519 ], [ -52.428456911523007, -24.782359197355827 ], [ -52.428297991607991, -24.782361759921869 ], [ -52.42814025549356, -24.782423422314501 ], [ -52.427982108785663, -24.782380441347588 ], [ -52.427803841821756, -24.782416009068072 ], [ -52.427667578242129, -24.782522878374714 ], [ -52.427508572337487, -24.782537776381186 ], [ -52.427391626350222, -24.78256418527852 ], [ -52.427351070064795, -24.78260502985415 ], [ -52.427313615958838, -24.782709061984544 ], [ -52.427196086004628, -24.782886209965397 ], [ -52.427158957124192, -24.782999376722415 ], [ -52.427041596876698, -24.783155084556611 ], [ -52.42699539099759, -24.783290531593504 ], [ -52.426986465226449, -24.783435084625154 ], [ -52.4269261236619, -24.783579901285727 ], [ -52.426935526381477, -24.783724399070067 ], [ -52.426872719807491, -24.783869586158161 ], [ -52.42687093872717, -24.784014075534685 ], [ -52.426855735554248, -24.784157856293941 ], [ -52.426844306553988, -24.784195493063336 ], [ -52.426812197144841, -24.784301232242456 ], [ -52.426804379782901, -24.78437738750306 ], [ -52.426749898233204, -24.784520930255027 ], [ -52.426711991978635, -24.784665763965528 ], [ -52.426577681284343, -24.784811697434261 ], [ -52.426563499984695, -24.784956945390391 ], [ -52.426519460152655, -24.785101234737837 ], [ -52.426479929307469, -24.785213321422596 ], [ -52.426423538933612, -24.785390875144909 ], [ -52.426351119692107, -24.785536036872358 ], [ -52.426186978663537, -24.785682255099498 ], [ -52.426012072661258, -24.78574307222496 ], [ -52.425852104772609, -24.785650211636554 ], [ -52.425713749738563, -24.785687942670876 ], [ -52.425588350238435, -24.785832358792344 ], [ -52.425379655836586, -24.785862379955137 ], [ -52.425222728865045, -24.785907945705773 ], [ -52.425064001709508, -24.785864287472652 ], [ -52.424905277142969, -24.7858228734273 ], [ -52.424746738617557, -24.785815244827152 ], [ -52.424588254636937, -24.785782870437544 ], [ -52.424429926850692, -24.785770998408069 ], [ -52.42430551727994, -24.78569996804962 ], [ -52.424111880973975, -24.785656960563895 ], [ -52.42395361254826, -24.785657081707665 ], [ -52.423794052246272, -24.785598774980262 ], [ -52.423639129322559, -24.785595747621951 ], [ -52.423387214205583, -24.785404860049752 ], [ -52.423227672263288, -24.785297388126459 ], [ -52.423071180927586, -24.785223270866879 ], [ -52.422917619464158, -24.785079930520109 ], [ -52.42274973319455, -24.785044133450221 ], [ -52.422612174230466, -24.784939506774748 ], [ -52.42245443074826, -24.784832677136087 ], [ -52.422370692708924, -24.784732555048983 ], [ -52.422270528584143, -24.784617715856598 ], [ -52.422244270910625, -24.78447328992625 ], [ -52.422124342138041, -24.784330058032083 ], [ -52.422019239905374, -24.784331573448014 ], [ -52.421861068761011, -24.784273979811669 ], [ -52.421701538935281, -24.78416418231766 ], [ -52.421542071129856, -24.784057342423303 ], [ -52.421382156123819, -24.783911228100056 ], [ -52.421222005219548, -24.783744373487536 ], [ -52.421106656058093, -24.783554153692215 ], [ -52.421091085581097, -24.783536344101602 ], [ -52.421090982737489, -24.783527315537864 ], [ -52.420989753473769, -24.78347407372268 ], [ -52.420776941668471, -24.783331694204179 ], [ -52.420638759240909, -24.783332958307874 ], [ -52.420524078692438, -24.783306116156339 ], [ -52.420348751431554, -24.783335736037969 ], [ -52.420301357318628, -24.783516172945564 ], [ -52.420288309787715, -24.783660474347759 ], [ -52.420176055899482, -24.783806859634613 ], [ -52.420202603015802, -24.783896949910769 ], [ -52.420100305531633, -24.784042393155616 ], [ -52.420030288697227, -24.784187530900379 ], [ -52.419913610352658, -24.784333328996258 ], [ -52.41979620292279, -24.784478718790588 ], [ -52.419659635128632, -24.784644069397942 ], [ -52.419576298136363, -24.784769780508633 ], [ -52.419504572317528, -24.784923910430312 ], [ -52.419318186050035, -24.785061143030337 ], [ -52.419190114946439, -24.785121133023619 ], [ -52.419084242029754, -24.78520781562743 ], [ -52.418978149079663, -24.785353352497172 ], [ -52.418877810082655, -24.785473196796783 ], [ -52.41871945818076, -24.785464075320636 ], [ -52.418519482244456, -24.785502165002686 ], [ -52.418403840172019, -24.78555945427437 ], [ -52.418246229680975, -24.785601294425984 ], [ -52.418089261422907, -24.78570931935603 ], [ -52.4179304186314, -24.785676936701396 ], [ -52.417771894606936, -24.785635607665665 ], [ -52.417554549915948, -24.785655703415298 ], [ -52.41755465251368, -24.785664731990352 ], [ -52.417476355281387, -24.785737687945602 ], [ -52.417318696834101, -24.78578751096439 ], [ -52.417161728603595, -24.785900999399733 ], [ -52.417004992398581, -24.786013357206276 ], [ -52.416846945735692, -24.78605224131228 ], [ -52.416689584734208, -24.786128677859832 ], [ -52.416532092115624, -24.786198104929266 ], [ -52.41636823487417, -24.786326007296079 ], [ -52.416215587213031, -24.786411031968417 ], [ -52.416053950105557, -24.786488224737628 ], [ -52.415923987599633, -24.786570496266993 ], [ -52.415749649196798, -24.786635745894777 ], [ -52.415608641830318, -24.786702318022606 ], [ -52.415427051183549, -24.786783079096569 ], [ -52.415293958469675, -24.786866709764336 ], [ -52.415136947026177, -24.786959369993227 ], [ -52.414979674384661, -24.787092813462785 ], [ -52.414823054142488, -24.787222399099125 ], [ -52.41479926217476, -24.787354260984891 ], [ -52.414770832224015, -24.787511827898268 ], [ -52.414749624517022, -24.787656523814597 ], [ -52.414829226450436, -24.787801841615405 ], [ -52.41491387382974, -24.787943904651584 ], [ -52.415075084164393, -24.788086631811719 ], [ -52.415198362561064, -24.788230151459494 ], [ -52.415309575946971, -24.788293925218778 ], [ -52.415429559108908, -24.78837244691832 ], [ -52.415479032167035, -24.788444989966138 ], [ -52.415556765106025, -24.788515675938594 ], [ -52.415698608654353, -24.788580784304997 ], [ -52.415719655542539, -24.78865214980695 ], [ -52.415750720401071, -24.788796958236567 ], [ -52.41568521710812, -24.78894189004366 ], [ -52.415642491402075, -24.789086766957183 ], [ -52.415608550376433, -24.789231536098995 ], [ -52.415516682159179, -24.789375418809495 ], [ -52.415452945502707, -24.7895944172977 ], [ -52.415383092883808, -24.789794302332382 ], [ -52.415173507615684, -24.790400715297764 ], [ -52.415030127266427, -24.790686465253881 ], [ -52.414873216836483, -24.790805332943506 ], [ -52.414715821319774, -24.790883583067689 ], [ -52.414544514135478, -24.790944598952581 ], [ -52.414400589800877, -24.790994939257232 ], [ -52.414312042757125, -24.79109158887124 ], [ -52.414243813442219, -24.791259215888953 ], [ -52.414178965795351, -24.791401612960552 ], [ -52.414045746133432, -24.791527203746082 ], [ -52.413973576917975, -24.791672870203442 ], [ -52.413870493418862, -24.79181750908592 ], [ -52.41375719678711, -24.791963214024765 ], [ -52.413648205880783, -24.792108815471689 ], [ -52.413577312753162, -24.792254313193045 ], [ -52.413465921059526, -24.792308485320234 ], [ -52.413378583867733, -24.79240010322108 ], [ -52.413265628297061, -24.792545557294584 ], [ -52.413127271837617, -24.792691982072018 ], [ -52.41254544602873, -24.793132791089132 ], [ -52.41237164249732, -24.793141117798385 ], [ -52.412230062468744, -24.793233525508136 ], [ -52.412072636472345, -24.793328169331815 ], [ -52.411878610387141, -24.793289609180597 ], [ -52.41175573455569, -24.793296425838303 ], [ -52.411598421965337, -24.793355504001873 ], [ -52.411439896969014, -24.79333443640337 ], [ -52.411281675657946, -24.793335950626673 ], [ -52.411123072091165, -24.793305809992439 ], [ -52.410964459072041, -24.793277306131433 ], [ -52.410806734015736, -24.793322326091591 ], [ -52.410437753808473, -24.793447492597416 ], [ -52.410299307004834, -24.793449350465671 ], [ -52.410175361517283, -24.793472794068087 ], [ -52.410017932374799, -24.793546514009638 ], [ -52.409859442648681, -24.793532451957294 ], [ -52.40970047171627, -24.793549822781852 ], [ -52.409528694221308, -24.793601172161747 ], [ -52.409384637417027, -24.79361587597198 ], [ -52.409227212364819, -24.793599088482907 ], [ -52.409069019225889, -24.793605185576286 ], [ -52.408911461909071, -24.79366099061933 ], [ -52.408912508010225, -24.793819603180317 ], [ -52.408754441528018, -24.793795253004301 ], [ -52.408596243777112, -24.793789514690278 ], [ -52.408437370101659, -24.793735464214315 ], [ -52.408280386764886, -24.793842770729999 ], [ -52.408122389654487, -24.793890819979865 ], [ -52.40796359423274, -24.793821984775697 ], [ -52.40780574904884, -24.793856244487507 ], [ -52.4076475344595, -24.793860915173436 ], [ -52.407489460340699, -24.793877322802985 ], [ -52.407330895968606, -24.793915258317558 ], [ -52.407174176677117, -24.793998087114257 ], [ -52.40701656809722, -24.794045873207143 ], [ -52.406858794673823, -24.794089318505613 ], [ -52.406700830242791, -24.794136708579956 ], [ -52.406540986788421, -24.794114466721926 ], [ -52.406384483083755, -24.794131466392759 ], [ -52.406226342674429, -24.794148424037566 ], [ -52.4060690214381, -24.794226341523533 ], [ -52.405911293404216, -24.794271378387716 ], [ -52.40567376705809, -24.794257751240075 ], [ -52.405516504304352, -24.794321918714825 ], [ -52.405358048913293, -24.794329159772413 ], [ -52.40520057271214, -24.794393243934117 ], [ -52.405042661743657, -24.794428288145088 ], [ -52.4048466831604, -24.794551974673595 ], [ -52.404680112894255, -24.794697629198577 ], [ -52.404573106160349, -24.794893204423364 ], [ -52.404554367515168, -24.794988405627851 ], [ -52.404469107649781, -24.795132838784788 ], [ -52.404391892348826, -24.79527887764986 ], [ -52.404391899678963, -24.795495608373592 ], [ -52.404401790229521, -24.795495515544317 ], [ -52.404405528382199, -24.79552251796818 ], [ -52.404416023044988, -24.795666922631092 ], [ -52.404420322674788, -24.795811173652968 ], [ -52.404426733467282, -24.79595576748957 ], [ -52.404509799125307, -24.796099279989573 ], [ -52.404588164865082, -24.796254342118374 ], [ -52.404589940113084, -24.79639220249139 ], [ -52.404749323661726, -24.796556655255092 ], [ -52.404837442165601, -24.796674248117942 ], [ -52.404807066837179, -24.796818808910629 ], [ -52.4049153100664, -24.796962493180615 ], [ -52.404944091797184, -24.7971056985612 ], [ -52.404975523420319, -24.797250873087336 ], [ -52.404998115946, -24.79739429376351 ], [ -52.405034415997157, -24.797532978485748 ], [ -52.405078132966764, -24.797682717043429 ], [ -52.405063570343387, -24.797827939262927 ], [ -52.405062788852995, -24.797972418827168 ], [ -52.405072538655602, -24.798116796640947 ], [ -52.405088307139444, -24.798260303925179 ], [ -52.405151619212646, -24.798403339106617 ], [ -52.405090229025596, -24.798635476983044 ], [ -52.405091450219764, -24.798762269427865 ], [ -52.405092569548991, -24.798861584113645 ], [ -52.405114538882302, -24.799055502430598 ], [ -52.405124429712124, -24.799055409541115 ], [ -52.405135439673025, -24.799154609391515 ], [ -52.405206303812825, -24.799298416849073 ], [ -52.40516353604864, -24.799442244913852 ], [ -52.405189829917504, -24.799592065265632 ], [ -52.405277908853925, -24.799730982379177 ], [ -52.405350697330626, -24.79990435828843 ], [ -52.405510287498871, -24.799959128726751 ], [ -52.405668010336861, -24.800077331493199 ], [ -52.405830282946546, -24.800248117438603 ], [ -52.405989434319203, -24.800347001877245 ], [ -52.406149435480422, -24.800476975859976 ], [ -52.406307881304976, -24.800494889161996 ], [ -52.406465901836114, -24.800489829583242 ], [ -52.406624332433942, -24.800489179777006 ], [ -52.406782074660605, -24.800439414078816 ], [ -52.40703003562097, -24.800292812248415 ], [ -52.407143763593972, -24.80014823787117 ], [ -52.407270219336255, -24.800002080086291 ], [ -52.407407756640104, -24.799970800497881 ], [ -52.407615855979337, -24.799854351967415 ], [ -52.407797394378868, -24.799707546617039 ], [ -52.407879118766481, -24.799456197706352 ], [ -52.407877700186752, -24.799335636406589 ], [ -52.407876275872972, -24.799226623108712 ], [ -52.407922244004624, -24.799128453936778 ], [ -52.407935437077228, -24.798984679014954 ], [ -52.407988882333271, -24.798838885514314 ], [ -52.408047846546339, -24.798693908915457 ], [ -52.408027345353709, -24.798584103006032 ], [ -52.408025074310444, -24.798450663616091 ], [ -52.408183200086505, -24.798392490679319 ], [ -52.40821897479929, -24.798259646116421 ], [ -52.408277447398653, -24.79811380520465 ], [ -52.408336574889844, -24.797941683442435 ], [ -52.408382246603267, -24.797824629002697 ], [ -52.408491766565035, -24.797669335913763 ], [ -52.408592629364342, -24.797532946711637 ], [ -52.408646203445755, -24.797362897725993 ], [ -52.408841890558357, -24.797242407121367 ], [ -52.408960398519724, -24.797123150333253 ], [ -52.409118444747143, -24.797103580936639 ], [ -52.409277001425373, -24.797129176282589 ], [ -52.409480985051459, -24.797091918290519 ], [ -52.40959243264237, -24.797031487295694 ], [ -52.409761259110255, -24.797088474247335 ], [ -52.409797522106381, -24.797232627370619 ], [ -52.409912161310515, -24.797314380517218 ], [ -52.410069052718811, -24.797256817636786 ], [ -52.41025249265865, -24.797228339834554 ], [ -52.410386807993348, -24.797324715092028 ], [ -52.410544619885172, -24.797277468394451 ], [ -52.410702146277487, -24.797215609621048 ], [ -52.410859844922022, -24.797161702358419 ], [ -52.411018448412008, -24.797176014653843 ], [ -52.411176313424825, -24.797138341816332 ], [ -52.411333675379396, -24.797064730896409 ], [ -52.411491587960192, -24.797027035343245 ], [ -52.411649097188267, -24.796981237425264 ], [ -52.411807859731539, -24.797003770716124 ], [ -52.411976845795344, -24.796923157438989 ], [ -52.412122988903683, -24.796901720575722 ], [ -52.412279996687893, -24.796831477517411 ], [ -52.412438817124404, -24.796817853640537 ], [ -52.412596294564992, -24.796745701658043 ], [ -52.412753394874741, -24.796707706966007 ], [ -52.412955336123645, -24.796672712444522 ], [ -52.41314863420272, -24.796605064857882 ], [ -52.413306396142495, -24.796558427069993 ], [ -52.413424576920377, -24.796529326768468 ], [ -52.413622095758143, -24.796467444424916 ], [ -52.41378039389685, -24.796484898751821 ], [ -52.413938472507652, -24.796471167611724 ], [ -52.414096410397413, -24.796430652590207 ], [ -52.414248966087818, -24.796377959724559 ], [ -52.414411908771598, -24.796333566904433 ], [ -52.414569640672298, -24.796289852277919 ], [ -52.414727710566133, -24.796286298897442 ], [ -52.414806771221222, -24.796282391022853 ], [ -52.41481676423922, -24.79629132607548 ], [ -52.414819083200442, -24.796293399526935 ], [ -52.41492640441669, -24.79633517452352 ], [ -52.415054341400868, -24.796362402795889 ], [ -52.415273129288821, -24.796476622417067 ], [ -52.415373188333042, -24.796513395221861 ], [ -52.415531044182309, -24.796494342104271 ], [ -52.415688938444717, -24.796461575218011 ], [ -52.415846469494547, -24.796372686335534 ], [ -52.415925540844583, -24.796270760656352 ], [ -52.416050936187197, -24.796226149509661 ], [ -52.416187957572873, -24.796026934422436 ], [ -52.416370372127396, -24.795933552789649 ], [ -52.416502145026335, -24.795841811818057 ], [ -52.416659876200725, -24.795733201865023 ], [ -52.41681760816271, -24.795681086434687 ], [ -52.417022556319154, -24.795638588161786 ], [ -52.417150258117829, -24.795492728917402 ], [ -52.417290151520604, -24.795465857094779 ], [ -52.417447467881438, -24.795388037596013 ], [ -52.417596415023887, -24.795344155338878 ], [ -52.417700552627998, -24.795343006151288 ], [ -52.417812556975761, -24.795342004138249 ], [ -52.417921035823476, -24.795274561722593 ], [ -52.418078963812874, -24.795244529451999 ], [ -52.418235722249854, -24.79511218619901 ], [ -52.418407851853779, -24.795047417272908 ], [ -52.418576260414042, -24.795045773374575 ], [ -52.418710567297289, -24.795116736306085 ], [ -52.418867789546177, -24.795115456552733 ], [ -52.419027040129976, -24.795112168046028 ], [ -52.41918516655101, -24.795120727167067 ], [ -52.419343776262139, -24.795130383386994 ], [ -52.41953227300197, -24.795181135620595 ], [ -52.419605496387298, -24.795221875227895 ], [ -52.419746509592628, -24.795323598290192 ], [ -52.419822640612267, -24.79548545053747 ], [ -52.41988379583011, -24.795610574144256 ], [ -52.419766405380102, -24.795756826142121 ], [ -52.419745811737627, -24.795901494824477 ], [ -52.419779537636678, -24.796045646479559 ], [ -52.419778773127703, -24.796190127008455 ], [ -52.419694659250581, -24.796407654951746 ], [ -52.419668037630657, -24.79646206358051 ], [ -52.419588124374506, -24.79660729343906 ], [ -52.419461519088905, -24.796768121794539 ], [ -52.41937628005995, -24.796897702970192 ], [ -52.419423092815585, -24.79704172460508 ], [ -52.419308716826059, -24.797164577586191 ], [ -52.419151347981241, -24.797237828692662 ], [ -52.41904017902629, -24.797334672583869 ], [ -52.418925100736729, -24.797480198804656 ], [ -52.418970097621006, -24.797624459431898 ], [ -52.418904714752081, -24.797769503076442 ], [ -52.418841720434735, -24.797928064241951 ], [ -52.418744349421331, -24.798060340868194 ], [ -52.418645740592368, -24.798150601734136 ], [ -52.418588566543519, -24.798299448433241 ], [ -52.418481144902564, -24.798441736768833 ], [ -52.41840837948542, -24.798627101288389 ], [ -52.418364229408304, -24.798731806789533 ], [ -52.418321597732451, -24.798876683407826 ], [ -52.418267915225179, -24.799021669234282 ], [ -52.418285498194969, -24.799164927618079 ], [ -52.418283873880171, -24.799334962997932 ], [ -52.418187955433964, -24.7994558401464 ], [ -52.418202616718119, -24.799600178105969 ], [ -52.418197699209124, -24.799744692723255 ], [ -52.418180949296897, -24.79988910908229 ], [ -52.418220074196988, -24.800033430016292 ], [ -52.418227464257455, -24.80017707192675 ], [ -52.418296724417495, -24.800321643847806 ], [ -52.418395632313171, -24.800465204219545 ], [ -52.418538990052184, -24.800463845027487 ], [ -52.418672495790105, -24.800606379761529 ], [ -52.418773323351459, -24.80064894797718 ], [ -52.418931034165048, -24.800775441067007 ], [ -52.419119066083866, -24.800891735491415 ], [ -52.41924191065015, -24.801049201750626 ], [ -52.419270845524309, -24.80109797923458 ], [ -52.419363976022055, -24.801249025793286 ], [ -52.419614554669742, -24.801383658483093 ], [ -52.419765137169662, -24.801526524638749 ], [ -52.419902966370515, -24.801669869838161 ], [ -52.420003717773859, -24.801833059875172 ], [ -52.420163889624874, -24.801999306919875 ], [ -52.420245020360596, -24.802172298136544 ], [ -52.420238520507588, -24.802316857779338 ], [ -52.420175816761301, -24.80250014441469 ], [ -52.42001875215896, -24.802611431073995 ], [ -52.419859770093304, -24.802648857719582 ], [ -52.419715841589614, -24.802610738022803 ], [ -52.419476389868947, -24.802433987157581 ], [ -52.419317507787135, -24.802386170004461 ], [ -52.419235370278166, -24.802378490484351 ], [ -52.419206311725276, -24.8023896316902 ], [ -52.418999755395127, -24.802353380749267 ], [ -52.41885514110465, -24.802353590948325 ], [ -52.418854973470957, -24.80235363768583 ], [ -52.418724480987244, -24.802321120819144 ], [ -52.418644897582318, -24.802359579429659 ], [ -52.418486520103002, -24.802371139981428 ], [ -52.418328696048, -24.8023899638088 ], [ -52.418112975800263, -24.802427265573417 ], [ -52.418012852242526, -24.80246688402627 ], [ -52.417855835438701, -24.802504259752293 ], [ -52.417697357863112, -24.802565105904648 ], [ -52.4175387293919, -24.802527259365053 ], [ -52.41738178042749, -24.80259570600267 ], [ -52.417223184999401, -24.802622182885266 ], [ -52.417064609414325, -24.802584482413373 ], [ -52.416901160128951, -24.80258324590049 ], [ -52.416706803856812, -24.802585142609161 ], [ -52.416588671893436, -24.802497502892344 ], [ -52.416431229700848, -24.802505120984939 ], [ -52.41627223837434, -24.802507913529368 ], [ -52.416113183241883, -24.802438797880459 ], [ -52.415955860380883, -24.802421931045075 ], [ -52.4157962231955, -24.802402493803239 ], [ -52.415637799436517, -24.80238752691286 ], [ -52.415478802214544, -24.802323115785928 ], [ -52.415287635263979, -24.802355976988046 ], [ -52.415163147364986, -24.802404207539421 ], [ -52.415003791441535, -24.802306415614304 ], [ -52.414845299348436, -24.802268908196407 ], [ -52.414687223587514, -24.802302370391299 ], [ -52.414527928434708, -24.802217434504247 ], [ -52.414370360980342, -24.802209472743911 ], [ -52.414211250165401, -24.802196448899355 ], [ -52.414052837394074, -24.802193269883567 ], [ -52.413894616247383, -24.802147935269453 ], [ -52.413736554730527, -24.802154180971574 ], [ -52.413577843752542, -24.802160912950324 ], [ -52.413419210449888, -24.802146669718496 ], [ -52.413261535925521, -24.802199154271705 ], [ -52.4131032972643, -24.802202242005141 ], [ -52.412945124818293, -24.802211172548038 ], [ -52.412786716981095, -24.802199337205046 ], [ -52.41262979048301, -24.802237342851701 ], [ -52.412471507272798, -24.802306174476847 ], [ -52.412314380521771, -24.802356147065773 ], [ -52.412156349312646, -24.802440056911383 ], [ -52.411957276292931, -24.802485490663731 ], [ -52.411842139355848, -24.802646913016329 ], [ -52.411800346151722, -24.802774874108945 ], [ -52.411769542040098, -24.802920680432923 ], [ -52.411846896815867, -24.80306897442038 ], [ -52.411896505632114, -24.803207384594216 ], [ -52.411934091104499, -24.803352549932107 ], [ -52.41201010483659, -24.803506923173646 ], [ -52.412113609761583, -24.803639680346699 ], [ -52.412122405989905, -24.8037834329132 ], [ -52.412172721133004, -24.803887587233618 ], [ -52.412319115240763, -24.803926806025004 ], [ -52.412371092124651, -24.804070241978259 ], [ -52.412493315414274, -24.804263917609262 ], [ -52.412563848814514, -24.804357912341054 ], [ -52.412577122182732, -24.804502255956596 ], [ -52.412655711520017, -24.80460991582148 ], [ -52.412782985488974, -24.804644784474924 ], [ -52.412815466409818, -24.804740667882644 ], [ -52.412974412156082, -24.804799664527401 ], [ -52.413133080107173, -24.804851274831162 ], [ -52.413353762526377, -24.804999552146548 ], [ -52.41351114806843, -24.805024608380034 ], [ -52.41367007522755, -24.805099028019409 ], [ -52.413830514950234, -24.805315034782137 ], [ -52.41398999936515, -24.805382791314241 ], [ -52.4142298196113, -24.805588269285337 ], [ -52.41433768972712, -24.805640751093485 ], [ -52.414350462550487, -24.805758733647458 ], [ -52.414510329074218, -24.805906785943794 ], [ -52.41463169774925, -24.805981743083102 ], [ -52.414734440174705, -24.806124623467888 ], [ -52.414845936790492, -24.806268687440301 ], [ -52.414862401562736, -24.806412982247657 ], [ -52.414886336423201, -24.806557047420235 ], [ -52.415000713913251, -24.806699797562604 ], [ -52.415073324140472, -24.806844400798894 ], [ -52.415174127190511, -24.806987717683249 ], [ -52.415208655291607, -24.807132065389705 ], [ -52.415160057486013, -24.807342322147683 ], [ -52.415003127064736, -24.807461190645292 ], [ -52.414846704459549, -24.807614910579922 ], [ -52.414787470007397, -24.807713259417635 ], [ -52.414639661484493, -24.807859810024031 ], [ -52.414535051251114, -24.808057179514133 ], [ -52.414377728178934, -24.808158694159452 ], [ -52.41412458756502, -24.808297920686289 ], [ -52.414047085112344, -24.808426201819756 ], [ -52.413969601404631, -24.808588330849069 ], [ -52.413862354995011, -24.808733998845565 ], [ -52.413747860748508, -24.808879410575443 ], [ -52.413653730962082, -24.809024911255726 ], [ -52.413598068910296, -24.809187520914946 ], [ -52.413432066232566, -24.809388212938064 ], [ -52.413267690104782, -24.809471115916317 ], [ -52.413139075929173, -24.809617391459305 ], [ -52.413076046834739, -24.809762445474981 ], [ -52.412882923441771, -24.809817811222075 ], [ -52.412747205055844, -24.809909392182238 ], [ -52.412568170354653, -24.810001047389378 ], [ -52.4124101466479, -24.810002845215998 ], [ -52.4122521711639, -24.810028265201407 ], [ -52.412094824239702, -24.810131697897823 ], [ -52.411935465804568, -24.810088890456615 ], [ -52.411777205916948, -24.810017828508037 ], [ -52.411619117003539, -24.810032897848401 ], [ -52.411459970801623, -24.809959230738428 ], [ -52.41132846356669, -24.809922557741107 ], [ -52.411142312391569, -24.809862877627303 ], [ -52.410982179696177, -24.809759056707087 ], [ -52.410824007930962, -24.809726574922855 ], [ -52.410665330345921, -24.809674596467175 ], [ -52.410526018247658, -24.809641432571102 ], [ -52.41034680569885, -24.809518753809222 ], [ -52.410220498276509, -24.809499590598616 ], [ -52.41002983339019, -24.809468181721105 ], [ -52.409905629812116, -24.809358214745323 ], [ -52.409710622800532, -24.80931617649162 ], [ -52.409601329969981, -24.809216444236945 ], [ -52.409433954668728, -24.809073083601856 ], [ -52.409301618415874, -24.808930541722123 ], [ -52.40925306293051, -24.808786345636587 ], [ -52.409229387589598, -24.808679312394464 ], [ -52.409069763663254, -24.80855975216382 ], [ -52.408909950048809, -24.808410561997189 ], [ -52.40875115614562, -24.808213360165176 ], [ -52.408632746539254, -24.808068959682622 ], [ -52.408565602317367, -24.807925344581875 ], [ -52.408474022178595, -24.807781734249051 ], [ -52.408268907774513, -24.807717374284657 ], [ -52.408129610238753, -24.807641325537304 ], [ -52.407950047423277, -24.807509187550725 ], [ -52.407822565507665, -24.807422945228243 ], [ -52.407639803251385, -24.807329221491845 ], [ -52.407540243411837, -24.807215771415489 ], [ -52.407381592778783, -24.807188031270211 ], [ -52.40726052577147, -24.807044521178305 ], [ -52.407062772586492, -24.806903501696194 ], [ -52.406903625383997, -24.806831646362216 ], [ -52.406743073081017, -24.806625003286285 ], [ -52.406583716952873, -24.806561374889107 ], [ -52.406424931482817, -24.80648513698338 ], [ -52.406335307528003, -24.806430209344715 ], [ -52.406335205645263, -24.806421180750938 ], [ -52.406192670752162, -24.806367608454373 ], [ -52.405937603663595, -24.806254924208893 ], [ -52.405778442690128, -24.806176747061645 ], [ -52.405618838277526, -24.806112898848209 ], [ -52.405460255195116, -24.806105416483302 ], [ -52.405303275408528, -24.806220927320862 ], [ -52.405145034527244, -24.806150856422846 ], [ -52.40498679395359, -24.806153913820598 ], [ -52.404828288726598, -24.806134204992524 ], [ -52.40466974025373, -24.806127529622575 ], [ -52.404534563523995, -24.806094950186559 ], [ -52.404352198282588, -24.806040215572072 ], [ -52.404194871951738, -24.80610717255637 ], [ -52.404035667772575, -24.80602291907455 ], [ -52.403875955453408, -24.805971690928846 ], [ -52.403719450980546, -24.806055257643685 ], [ -52.403560907809556, -24.806031878304825 ], [ -52.403402423826421, -24.806031273046845 ], [ -52.40325740620429, -24.806107165083201 ], [ -52.403092143700498, -24.806240998885823 ], [ -52.402930809695668, -24.806311602242229 ], [ -52.402772513160301, -24.806383443155056 ], [ -52.402616733243164, -24.806520868623959 ], [ -52.402457308481431, -24.806503783052861 ], [ -52.402332276414803, -24.806538193618707 ], [ -52.402185567886633, -24.80653800942833 ], [ -52.402057648099145, -24.806538466043641 ], [ -52.401825317195829, -24.806519283526502 ], [ -52.401666691060839, -24.806510977894746 ], [ -52.40145215781515, -24.806513188794931 ], [ -52.401350139745567, -24.806489185024368 ], [ -52.401192366414129, -24.806534217863693 ], [ -52.40103390037153, -24.806517643047446 ], [ -52.400875893845225, -24.80643733711824 ], [ -52.400864944429102, -24.806445421534136 ], [ -52.400864842942518, -24.806436392919153 ], [ -52.400701544826582, -24.806428892562973 ], [ -52.400532704732186, -24.806430520907732 ], [ -52.400311216496448, -24.806470232721889 ], [ -52.400153121649922, -24.806503968433404 ], [ -52.399994589014781, -24.806464166889317 ], [ -52.399840989917877, -24.806436948305517 ], [ -52.399678009837608, -24.806462401777342 ], [ -52.399538771330157, -24.806439871079959 ], [ -52.399372395380986, -24.806451410046609 ], [ -52.39937123592351, -24.806450373200999 ], [ -52.399283149092931, -24.806532441417225 ], [ -52.399124683199695, -24.806515864566499 ], [ -52.398966865257499, -24.806550955156666 ], [ -52.39880889450815, -24.806504376889301 ], [ -52.398649969436867, -24.806527133893841 ], [ -52.398492032287344, -24.806554734979869 ], [ -52.398329297465715, -24.806604590144744 ], [ -52.398177567762048, -24.806632137176013 ], [ -52.398016938255289, -24.806751961825022 ], [ -52.397861360803887, -24.806775918228531 ], [ -52.397703675201662, -24.806811180092868 ], [ -52.397546530180783, -24.806930162247628 ], [ -52.397390501646974, -24.806968269470154 ], [ -52.397231924991779, -24.807102015403533 ], [ -52.397075177625801, -24.807240916610912 ], [ -52.396916915611499, -24.807243027823421 ], [ -52.396718433315684, -24.807341980508127 ], [ -52.396602458580105, -24.807428756188386 ], [ -52.396420366323547, -24.807489185448997 ], [ -52.39623227312299, -24.807635465711083 ], [ -52.396133186371436, -24.807847692579834 ], [ -52.395975621102174, -24.807991607633365 ], [ -52.395818670524456, -24.808110456831255 ], [ -52.395662126103609, -24.80826380912864 ], [ -52.395651553876753, -24.808363251400394 ], [ -52.395742196346298, -24.808506878827774 ], [ -52.395757168055887, -24.808651212333114 ], [ -52.395825780913256, -24.808749901042194 ], [ -52.395926137534445, -24.808875400472893 ], [ -52.395936029182373, -24.808875308156612 ], [ -52.3959924475677, -24.808928839356192 ], [ -52.396128629413859, -24.809072140038911 ], [ -52.396305840233168, -24.809214958199426 ], [ -52.396424438089959, -24.809358320516143 ], [ -52.396593444636622, -24.809501038452286 ], [ -52.396628972055098, -24.809645357131998 ], [ -52.396666030448245, -24.80978948870958 ], [ -52.396741047366952, -24.809933256875059 ], [ -52.396741834733227, -24.810077507788527 ], [ -52.396773127255848, -24.810303195325687 ], [ -52.396694299924462, -24.810484497284872 ], [ -52.39670789537351, -24.810659118126669 ], [ -52.39668757474886, -24.810758123274965 ], [ -52.396553255153179, -24.810972915808634 ], [ -52.3965046817817, -24.811064164104803 ], [ -52.396506035171832, -24.811207686544794 ], [ -52.3964898292447, -24.81135324539958 ], [ -52.396451300129847, -24.811497208535759 ], [ -52.39645003781407, -24.811642563197896 ], [ -52.396387017036609, -24.811787566391438 ], [ -52.396366803831306, -24.812004548751858 ], [ -52.39625789450556, -24.812150013077741 ], [ -52.396273627472539, -24.812293521660987 ], [ -52.396270225003192, -24.812438666955231 ], [ -52.396286662841462, -24.812583168330942 ], [ -52.396394962108161, -24.812753718207905 ], [ -52.396445761461464, -24.81287062829011 ], [ -52.396556674310673, -24.813059213568106 ], [ -52.396679027688819, -24.81315721530996 ], [ -52.396795093650987, -24.813300781675171 ], [ -52.396877696175288, -24.813453560354265 ], [ -52.397045633276882, -24.813587387633 ], [ -52.39719715613996, -24.813715597580313 ], [ -52.397355568728258, -24.813748458819525 ], [ -52.397513420297415, -24.813755775404683 ], [ -52.399164653359662, -24.813523581796005 ], [ -52.400129346437481, -24.813170281912871 ], [ -52.400227481294614, -24.81308918374512 ], [ -52.400385116908815, -24.813041473339119 ], [ -52.400542423271915, -24.812941592425513 ], [ -52.400699020718378, -24.812803787131525 ], [ -52.40085630251, -24.812707219425814 ], [ -52.400930318229243, -24.812584307816362 ], [ -52.401012009342431, -24.812484820907137 ], [ -52.401168880351506, -24.812358530460887 ], [ -52.401306281419643, -24.812292202766631 ], [ -52.401325224908298, -24.812147204321025 ], [ -52.401446917068554, -24.812002137364626 ], [ -52.401491426236582, -24.811857264033463 ], [ -52.401573446019022, -24.811711906536665 ], [ -52.401704075845707, -24.811566329014937 ], [ -52.401851611660739, -24.811419324254576 ], [ -52.402000828894892, -24.811285571769332 ], [ -52.402007395065006, -24.811216928230909 ], [ -52.402120399521564, -24.81112900201995 ], [ -52.402262140852194, -24.811048027927644 ], [ -52.402501428821729, -24.8112157528364 ], [ -52.402437791216315, -24.811323211316502 ], [ -52.402463217236367, -24.811468829200823 ], [ -52.402520750246516, -24.811612872098152 ], [ -52.402605151412047, -24.811755593476978 ], [ -52.402683743679397, -24.811900263679757 ], [ -52.402867985298649, -24.812042902817915 ], [ -52.403034240552898, -24.812185926224206 ], [ -52.403203579577493, -24.812328817607806 ], [ -52.403346552787227, -24.812471940914119 ], [ -52.403455445019539, -24.812495734618096 ], [ -52.403615138130931, -24.812603292688113 ], [ -52.403847455525643, -24.812611657892546 ], [ -52.404021769884999, -24.812691364298217 ], [ -52.404021668140679, -24.812682335703002 ], [ -52.404036145412633, -24.812673217665342 ], [ -52.404148415893118, -24.812672090602547 ], [ -52.404279726223045, -24.81276122268233 ], [ -52.404437457132268, -24.81273429281752 ], [ -52.404614193254503, -24.812812012328166 ], [ -52.404756088639658, -24.81289212643842 ], [ -52.404914670585974, -24.812924251258686 ], [ -52.405072077449788, -24.812862921774318 ], [ -52.405231220896034, -24.812916366370878 ], [ -52.405389026432388, -24.812890844166841 ], [ -52.405547416061609, -24.812880187689569 ], [ -52.405705995298121, -24.812908089989765 ], [ -52.405863499059656, -24.812836572824121 ], [ -52.406021074069429, -24.812787181031947 ], [ -52.406040979320657, -24.812851334785073 ], [ -52.406179977268096, -24.812836145130923 ], [ -52.406337498040905, -24.812762123574625 ], [ -52.406495450584075, -24.812732895293159 ], [ -52.406653380120623, -24.812791878408337 ], [ -52.406812080160648, -24.81273740133501 ], [ -52.406969563894705, -24.812670263095825 ], [ -52.407127285085878, -24.812717651041083 ], [ -52.407286620038271, -24.812711721007425 ], [ -52.407443632307817, -24.812596016115197 ], [ -52.407601322087473, -24.81256068701747 ], [ -52.407782320751821, -24.812493507112134 ], [ -52.407915677065795, -24.812411300017015 ], [ -52.407988366049537, -24.812405365096261 ], [ -52.408074348586737, -24.812398344735367 ], [ -52.408233070281455, -24.812419202102305 ], [ -52.408391430320101, -24.812426107302674 ], [ -52.408548722683648, -24.812420273942003 ], [ -52.408707956640782, -24.812421558844164 ], [ -52.408866941048473, -24.812483246081577 ], [ -52.409053700750249, -24.81262510806166 ], [ -52.409204839679454, -24.812769004140332 ], [ -52.409246602462154, -24.812912213470238 ], [ -52.409190447569259, -24.813092007045363 ], [ -52.409158946954825, -24.81320273837796 ], [ -52.409036742983851, -24.813417601904188 ], [ -52.408926491268062, -24.813493940765124 ], [ -52.40892189147155, -24.813638328322906 ], [ -52.408881779576767, -24.81379081822438 ], [ -52.408893192324811, -24.813927680901788 ], [ -52.408799862312783, -24.814072996140894 ], [ -52.408729687035951, -24.814254501096769 ], [ -52.408620448170133, -24.814363027983504 ], [ -52.408537184186741, -24.814508964989646 ], [ -52.408466110923008, -24.814654110635175 ], [ -52.408419192747104, -24.814874469277399 ], [ -52.408293037033033, -24.814944682113339 ], [ -52.408278127150375, -24.815089320711568 ], [ -52.408200599338386, -24.815234523368357 ], [ -52.408231778704909, -24.815378499496401 ], [ -52.408206055423385, -24.815523333220838 ], [ -52.40811139555187, -24.815631575961621 ], [ -52.407956169180046, -24.815693121797274 ], [ -52.407795602406111, -24.815721653552053 ], [ -52.407560744710615, -24.815817870606299 ], [ -52.407453742825332, -24.815963891816583 ], [ -52.407324032240304, -24.816016155059629 ], [ -52.407248889571314, -24.816110266728955 ], [ -52.407167990571807, -24.816146854814203 ], [ -52.407090637102883, -24.816294692922128 ], [ -52.40693310675406, -24.816420591228329 ], [ -52.4067868020677, -24.816629349405964 ], [ -52.406786904030788, -24.816638377985676 ], [ -52.406637130227686, -24.816726040153743 ], [ -52.406541688325717, -24.816825779243715 ], [ -52.406384192247053, -24.816966336451028 ], [ -52.406228011465444, -24.817105479618927 ], [ -52.406071617982512, -24.817291047801064 ], [ -52.405956349765759, -24.817310521937522 ], [ -52.40575634775994, -24.817370410759342 ], [ -52.405676826255238, -24.817335062084325 ], [ -52.405666832091896, -24.817326126491025 ], [ -52.405429628763365, -24.817349575488375 ], [ -52.405271424702349, -24.817368745725464 ], [ -52.405113084023739, -24.817366203359065 ], [ -52.404989019315607, -24.817314437456819 ], [ -52.404830606665499, -24.817315968036933 ], [ -52.404638035213956, -24.817335815807915 ], [ -52.404578375851145, -24.817309265623582 ], [ -52.404568381764896, -24.817300329953241 ], [ -52.404491916816042, -24.817287277686184 ], [ -52.404331293144971, -24.817326510597127 ], [ -52.404172329414308, -24.817269524284168 ], [ -52.404014712137091, -24.817312263936458 ], [ -52.403827376138032, -24.817388532248842 ], [ -52.403757321596196, -24.817533435914598 ], [ -52.403729963878881, -24.817678388519258 ], [ -52.403719791856716, -24.817839042072301 ], [ -52.403678123331815, -24.817967643353864 ], [ -52.403691061744496, -24.818111354217969 ], [ -52.403698651539322, -24.818256577006206 ], [ -52.403731803504677, -24.81840976439786 ], [ -52.403693861977182, -24.818554593286027 ], [ -52.403741359233202, -24.818698370904517 ], [ -52.403792579653818, -24.818842611967639 ], [ -52.403761289721096, -24.81898740401968 ], [ -52.403688760396165, -24.819132535664394 ], [ -52.40368990215584, -24.819276347796695 ], [ -52.403669347765479, -24.819421601295542 ], [ -52.403743447423707, -24.819564774745864 ], [ -52.403711571014917, -24.819710208656819 ], [ -52.403727208461902, -24.819924859246427 ], [ -52.404564160609794, -24.820665022507502 ], [ -52.407939277994707, -24.823649900769972 ], [ -52.411216713246638, -24.826511480378322 ], [ -52.411956531764794, -24.827157247345362 ], [ -52.412009179330745, -24.827205328861737 ], [ -52.414985989092131, -24.829804316445962 ], [ -52.415144968581778, -24.829941839407443 ], [ -52.41527435440976, -24.830053762428083 ], [ -52.415977645751354, -24.830656348706956 ], [ -52.417210387895153, -24.831726855852477 ], [ -52.417316365649441, -24.83181843826878 ], [ -52.417588246581715, -24.832054921687529 ], [ -52.417884327546631, -24.832310267003667 ], [ -52.418363475377959, -24.832723202242732 ], [ -52.41884222, -24.83311694 ], [ -52.42041, -24.83237861 ], [ -52.42117194, -24.83313833 ], [ -52.42136417, -24.83332417 ], [ -52.42315667, -24.8350875 ], [ -52.42430444, -24.83623444 ], [ -52.425970116666676, -24.837884058333337 ], [ -52.427142812704083, -24.835205272097383 ], [ -52.427196255151124, -24.83510355951325 ], [ -52.428227658467968, -24.832709067196998 ], [ -52.428274036765075, -24.832601393761379 ], [ -52.428472402777778, -24.832140858333329 ], [ -52.428538029126116, -24.831988504037614 ], [ -52.430128151612763, -24.828335626461271 ], [ -52.43018173436721, -24.828250020136942 ], [ -52.430283125607581, -24.828159261050189 ], [ -52.430581296060211, -24.827864024744894 ], [ -52.431095123194609, -24.827305130881239 ], [ -52.431170139019208, -24.827222425183137 ], [ -52.432070335056046, -24.826054809507571 ], [ -52.433943690351214, -24.825587121992385 ], [ -52.437375344837804, -24.82465073435424 ], [ -52.437385805747908, -24.8245323628494 ], [ -52.437398120485902, -24.824396182805579 ], [ -52.437408171711404, -24.8242889697772 ], [ -52.437483795940736, -24.823580694777938 ], [ -52.438046348257572, -24.823485983585382 ], [ -52.438141767027126, -24.823254995341458 ], [ -52.438446147901601, -24.822517611591117 ], [ -52.438569538065245, -24.822219265160765 ], [ -52.439063038475098, -24.820952650246298 ], [ -52.438094343006313, -24.819768457150225 ], [ -52.438118857798436, -24.819152519208288 ], [ -52.438123681218009, -24.819031906968132 ], [ -52.438168055555558, -24.81780444444443 ], [ -52.438781231539458, -24.818474158674967 ], [ -52.438817511553339, -24.818445998859406 ], [ -52.438965156366891, -24.818269316382192 ], [ -52.439270070607115, -24.817927054908228 ], [ -52.439639299940211, -24.817799706736185 ], [ -52.439728457776859, -24.817767154948672 ], [ -52.439891423848891, -24.817743553920732 ], [ -52.440047194905056, -24.817730857351116 ], [ -52.44029922498504, -24.817717955837914 ], [ -52.440652676748769, -24.817706424457363 ], [ -52.441053342794099, -24.817714031150242 ], [ -52.440975396899226, -24.817629634582456 ], [ -52.441173743755463, -24.817483161581155 ], [ -52.441358061936697, -24.817415379766615 ], [ -52.441450321080907, -24.817385867095094 ], [ -52.441584507243192, -24.817722184627272 ], [ -52.441663543845415, -24.817934969100467 ], [ -52.441846609372874, -24.818203365090199 ], [ -52.442216116054531, -24.818476102720989 ], [ -52.442484860165628, -24.819470632042101 ], [ -52.442629437483511, -24.819764048558351 ], [ -52.442734894148245, -24.820310034723601 ], [ -52.442569165494881, -24.820513893285689 ], [ -52.443294773135896, -24.82127078670926 ], [ -52.444757753694319, -24.822800595330015 ], [ -52.444855436204826, -24.822902476820545 ], [ -52.444895321071314, -24.822944368921494 ], [ -52.444994315272048, -24.823027028105521 ], [ -52.44500501618294, -24.823035950750828 ], [ -52.44683482426975, -24.824583505803776 ], [ -52.4473759571706, -24.825033955924773 ], [ -52.449363884874572, -24.823428435008069 ], [ -52.448425976115153, -24.822646998280653 ], [ -52.445692914501187, -24.820291765928236 ], [ -52.445637661085236, -24.820244164234484 ], [ -52.445521599290934, -24.820149393720577 ], [ -52.445465458654944, -24.820095236135366 ], [ -52.444241079786693, -24.818911280738231 ], [ -52.443514535968554, -24.81823892119175 ], [ -52.44345511835585, -24.818259540143238 ], [ -52.443053488368427, -24.817887069405757 ], [ -52.442903988033102, -24.817629728180698 ], [ -52.442166922562798, -24.816799267040569 ], [ -52.44279774442937, -24.81488020309062 ], [ -52.442901067039912, -24.81472985912399 ], [ -52.442831313591313, -24.814626693465829 ], [ -52.44324413450768, -24.812678398688412 ], [ -52.444010099747601, -24.812572674248369 ], [ -52.444328847061449, -24.81210331559755 ], [ -52.444643326900639, -24.811411150772326 ], [ -52.444739274096577, -24.810983492247143 ], [ -52.444719824664894, -24.809869175242302 ], [ -52.444825337094976, -24.809387789306225 ], [ -52.445009716193724, -24.809354243783684 ], [ -52.445408855634007, -24.809281563366842 ], [ -52.445480332596006, -24.809021727441745 ], [ -52.445801336075967, -24.808543405007143 ], [ -52.446261057537505, -24.808894269269125 ], [ -52.446390992687711, -24.808659601628285 ], [ -52.446719133796506, -24.808336334223384 ], [ -52.447090216614725, -24.807860594840907 ], [ -52.447388818940354, -24.807481448695242 ], [ -52.447804642161742, -24.807400132349461 ], [ -52.448134009929348, -24.806280633765713 ], [ -52.448479840737399, -24.805880170369505 ], [ -52.452378071910879, -24.808568808770353 ], [ -52.453966918284131, -24.808790304460906 ], [ -52.454018212052432, -24.808796502053443 ], [ -52.454050059808964, -24.808802588895745 ], [ -52.454129819189603, -24.808804793207504 ], [ -52.454168975513284, -24.808810199484245 ], [ -52.45642959377399, -24.80914025305005 ], [ -52.459434233952159, -24.810143839646461 ], [ -52.461816704276387, -24.81032391504796 ], [ -52.462900900069961, -24.810160898051102 ], [ -52.462984339342498, -24.810240533871472 ], [ -52.46352723794412, -24.810121993772238 ], [ -52.463924233017899, -24.809751966411856 ], [ -52.464307969822308, -24.808994706641638 ], [ -52.46451208515743, -24.809106686285816 ], [ -52.464939026867938, -24.809340944568152 ], [ -52.465668918146051, -24.809586616972766 ], [ -52.466234815180897, -24.810103149975422 ], [ -52.467301332933999, -24.810892694680092 ], [ -52.468140528816569, -24.810993714809968 ], [ -52.469209176505871, -24.810963897896091 ], [ -52.468900042303126, -24.811896238613276 ], [ -52.46890944, -24.81192 ], [ -52.47033629735126, -24.811904628290772 ], [ -52.47149389, -24.81190389 ], [ -52.47172583, -24.81233083 ], [ -52.47409111, -24.81231222 ], [ -52.474887397134133, -24.812302138383934 ], [ -52.47496278, -24.81230444 ], [ -52.47588222, -24.81230611 ], [ -52.47822389, -24.81242167 ], [ -52.478510942118369, -24.812432900695185 ], [ -52.479039398006677, -24.813067810686249 ], [ -52.479114350571528, -24.813215001616623 ], [ -52.47934111, -24.81366194 ], [ -52.47979194, -24.8142225 ], [ -52.47989722, -24.81442167 ], [ -52.47995694, -24.81465889 ], [ -52.4797675, -24.81565722 ], [ -52.47971806, -24.81601472 ], [ -52.4797325, -24.817016939999988 ], [ -52.47979306, -24.81728972 ], [ -52.47996278, -24.81760917 ], [ -52.48014861, -24.81800917 ], [ -52.48071056, -24.81851778 ], [ -52.48126944, -24.8191225 ], [ -52.48143722, -24.81941778 ], [ -52.48157944, -24.81977194 ], [ -52.48169917, -24.81994611 ], [ -52.48193944, -24.82020139 ], [ -52.48254306, -24.82056778 ], [ -52.48259528, -24.82068278 ], [ -52.48261389, -24.82081861 ], [ -52.48260611, -24.8209825 ], [ -52.48254639, -24.82135861 ], [ -52.48243833, -24.82161361 ], [ -52.48194028, -24.82224278 ], [ -52.48027889, -24.8244725 ], [ -52.4801675, -24.82459222 ], [ -52.480228797234254, -24.82465910143225 ], [ -52.481354034840457, -24.830179673392536 ], [ -52.48135417, -24.83029833 ], [ -52.48158722, -24.8304525 ] ] ] ] } }
]
}
